[{"OBJECT_NAME":"SHIJIAN-6 05B (SJ-6 05B)","OBJECT_ID":"2021-122B","EPOCH":"2026-03-09T16:33:59.042016","MEAN_MOTION":15.11445981,"ECCENTRICITY":0.0002764,"INCLINATION":97.3727,"RA_OF_ASC_NODE":52.7566,"ARG_OF_PERICENTER":59.7124,"MEAN_ANOMALY":300.438,"EPHEMERIS_TYPE":0,"CLASSIFICATION_TYPE":"U","NORAD_CAT_ID":49962,"ELEMENT_SET_NO":999,"REV_AT_EPOCH":23471,"BSTAR":0.00020679,"MEAN_MOTION_DOT":3.434e-5,"MEAN_MOTION_DDOT":0},{"OBJECT_NAME":"STARLINK-3973","OBJECT_ID":"2022-052AZ","EPOCH":"2026-03-09T17:22:25.203648","MEAN_MOTION":15.08837356,"ECCENTRICITY":0.00014154,"INCLINATION":53.2166,"RA_OF_ASC_NODE":259.074,"ARG_OF_PERICENTER":86.9851,"MEAN_ANOMALY":273.1303,"EPHEMERIS_TYPE":0,"CLASSIFICATION_TYPE":"U","NORAD_CAT_ID":52645,"ELEMENT_SET_NO":999,"REV_AT_EPOCH":21113,"BSTAR":1.2438642e-5,"MEAN_MOTION_DOT":-9.0e-7,"MEAN_MOTION_DDOT":0}]
