SHIJIAN-6 05B (SJ-6 05B)
1 49962U 21122B   26068.69026669  .00003434  00000+0  20679-3 0  9994
2 49962  97.3727  52.7566 0002764  59.7124 300.4380 15.11445981234719
STARLINK-3973           
1 52645U 22052AZ  26068.72390281 -.00000090  00000+0  12439-4 0  9999
2 52645  53.2166 259.0740 0001415  86.9851 273.1303 15.08837356211135
